{"epoch":1784799577,"count":18318,"objects":[{"id":"69272","name":"KUIPER-00572","type":"PAYLOAD","l1":"1 69272U 26118F   26203.83335648 -.01789381  00000-0 -11909+0 0  9995","l2":"2 69272  51.8812 242.4223 0003366 328.5178  39.2805 15.10106171  3827"},{"id":"69273","name":"KUIPER-00581","type":"PAYLOAD","l1":"1 69273U 26118G   26203.83335648 -.00043724  00000-0 -50750-2 0  9999","l2":"2 69273  51.8998 245.6398 0005306 302.9003 227.3304 14.85049249  3782"},{"id":"69274","name":"KUIPER-00584","type":"PAYLOAD","l1":"1 69274U 26118H   26203.83335648 -.00058733  00000-0 -76175-2 0  9995","l2":"2 69274  51.8993 248.1512 0001477  15.8805 308.7249 14.80613932  5582"},{"id":"69275","name":"KUIPER-00587","type":"PAYLOAD","l1":"1 69275U 26118J   26203.83335648 -.01065344  00000-0 -39848-1 0  9998","l2":"2 69275  51.8670 241.3573 0007724 327.8926 250.9158 15.29597901  5788"},{"id":"69276","name":"KUIPER-00590","type":"PAYLOAD","l1":"1 69276U 26118K   26203.83335648 -.00030956  00000-0 -25196-2 0  9991","l2":"2 69276  51.8908 243.6877 0003233  40.7474 168.4895 14.98951834  4026"},{"id":"69277","name":"KUIPER-00592","type":"PAYLOAD","l1":"1 69277U 26118L   26203.83335648 -.01765484  00000-0 -14464+0 0  9997","l2":"2 69277  51.8874 243.2197 0001594 195.9592 266.1226 15.02435959  5668"},{"id":"69278","name":"KUIPER-00593","type":"PAYLOAD","l1":"1 69278U 26118M   26203.39484980  .00027262  00000-0  70574-3 0  9993","l2":"2 69278  51.8708 242.6499 0002855 313.1878  46.8870 15.38857960  9464"},{"id":"69279","name":"KUIPER-00594","type":"PAYLOAD","l1":"1 69279U 26118N   26203.40105419  .00024013  00000-0  64991-3 0  9990","l2":"2 69279  51.8692 242.6889 0002059  84.9787 275.1435 15.37558886  9400"},{"id":"69280","name":"KUIPER-00595","type":"PAYLOAD","l1":"1 69280U 26118P   26203.40359830  .00019998  00000-0  54298-3 0  9995","l2":"2 69280  51.8696 242.7049 0001572  23.8490 336.2569 15.37577104  9431"},{"id":"69281","name":"KUIPER-00596","type":"PAYLOAD","l1":"1 69281U 26118Q   26203.83335648 -.00057003  00000-0 -74550-2 0  9997","l2":"2 69281  51.9005 248.0378 0000495   8.6593  46.8858 14.80251291  5703"},{"id":"69282","name":"KUIPER-00597","type":"PAYLOAD","l1":"1 69282U 26118R   26203.49375691  .00030993  00000-0  82469-3 0  9998","l2":"2 69282  51.8643 242.5309 0006974 312.0394  47.9999 15.37925521  9410"},{"id":"69283","name":"KUIPER-00599","type":"PAYLOAD","l1":"1 69283U 26118S   26203.83335648 -.01251960  00000-0 -57940-1 0  9991","l2":"2 69283  51.8782 241.3584 0005944 311.2345 301.3734 15.22615575  4609"},{"id":"69284","name":"KUIPER-00600","type":"PAYLOAD","l1":"1 69284U 26118T   26203.37566354  .00026229  00000-0  70752-3 0  9994","l2":"2 69284  51.8628 243.2297 0007674 318.3952  41.6450 15.37588501  9399"},{"id":"69285","name":"KUIPER-00601","type":"PAYLOAD","l1":"1 69285U 26118U   26203.83335648 -.00031107  00000-0 -24711-2 0  9992","l2":"2 69285  51.8929 243.3864 0003525 321.5299 337.1261 14.99882310  5218"},{"id":"69286","name":"KUIPER-00602","type":"PAYLOAD","l1":"1 69286U 26118V   26203.83335648 -.00370363  00000-0 -11912-1 0  9991","l2":"2 69286  51.8708 240.6491 0003074 302.2427 274.1174 15.33248418  5844"},{"id":"69287","name":"KUIPER-00603","type":"PAYLOAD","l1":"1 69287U 26118W   26203.83335648 -.01907680  00000-0 -85875-1 0  9990","l2":"2 69287  51.8764 241.1846 0002483 308.8081 327.1897 15.23878169  5390"}]}