{"fetched_at":"2026-07-23T07:05:17.272Z","source":"https://celestrak.org/NORAD/elements/gp.php?GROUP=kuiper&FORMAT=JSON","constellation":"kuiper","records":[{"OBJECT_NAME":"KUIPER-00572","OBJECT_ID":"2026-118F","EPOCH":"2026-07-22T20:00:01.999872","CLASSIFICATION_TYPE":"U","MEAN_MOTION":15.10106171,"ECCENTRICITY":0.00033656,"INCLINATION":51.8812,"RA_OF_ASC_NODE":242.4223,"ARG_OF_PERICENTER":328.5178,"MEAN_ANOMALY":39.2805,"EPHEMERIS_TYPE":0,"NORAD_CAT_ID":69272,"ELEMENT_SET_NO":999,"REV_AT_EPOCH":382,"BSTAR":-0.11908745,"MEAN_MOTION_DOT":-0.01789381,"MEAN_MOTION_DDOT":0},{"OBJECT_NAME":"KUIPER-00581","OBJECT_ID":"2026-118G","EPOCH":"2026-07-22T20:00:01.999872","CLASSIFICATION_TYPE":"U","MEAN_MOTION":14.85049249,"ECCENTRICITY":0.00053056,"INCLINATION":51.8998,"RA_OF_ASC_NODE":245.6398,"ARG_OF_PERICENTER":302.9003,"MEAN_ANOMALY":227.3304,"EPHEMERIS_TYPE":0,"NORAD_CAT_ID":69273,"ELEMENT_SET_NO":999,"REV_AT_EPOCH":378,"BSTAR":-0.0050750071,"MEAN_MOTION_DOT":-0.00043724,"MEAN_MOTION_DDOT":0},{"OBJECT_NAME":"KUIPER-00584","OBJECT_ID":"2026-118H","EPOCH":"2026-07-22T20:00:01.999872","CLASSIFICATION_TYPE":"U","MEAN_MOTION":14.80613932,"ECCENTRICITY":0.00014774,"INCLINATION":51.8993,"RA_OF_ASC_NODE":248.1512,"ARG_OF_PERICENTER":15.8805,"MEAN_ANOMALY":308.7249,"EPHEMERIS_TYPE":0,"NORAD_CAT_ID":69274,"ELEMENT_SET_NO":999,"REV_AT_EPOCH":558,"BSTAR":-0.0076174831,"MEAN_MOTION_DOT":-0.00058733,"MEAN_MOTION_DDOT":0},{"OBJECT_NAME":"KUIPER-00587","OBJECT_ID":"2026-118J","EPOCH":"2026-07-22T20:00:01.999872","CLASSIFICATION_TYPE":"U","MEAN_MOTION":15.29597901,"ECCENTRICITY":0.00077237,"INCLINATION":51.867,"RA_OF_ASC_NODE":241.3573,"ARG_OF_PERICENTER":327.8926,"MEAN_ANOMALY":250.9158,"EPHEMERIS_TYPE":0,"NORAD_CAT_ID":69275,"ELEMENT_SET_NO":999,"REV_AT_EPOCH":578,"BSTAR":-0.03984772,"MEAN_MOTION_DOT":-0.01065344,"MEAN_MOTION_DDOT":0},{"OBJECT_NAME":"KUIPER-00590","OBJECT_ID":"2026-118K","EPOCH":"2026-07-22T20:00:01.999872","CLASSIFICATION_TYPE":"U","MEAN_MOTION":14.98951834,"ECCENTRICITY":0.00032332,"INCLINATION":51.8908,"RA_OF_ASC_NODE":243.6877,"ARG_OF_PERICENTER":40.7474,"MEAN_ANOMALY":168.4895,"EPHEMERIS_TYPE":0,"NORAD_CAT_ID":69276,"ELEMENT_SET_NO":999,"REV_AT_EPOCH":402,"BSTAR":-0.0025195726,"MEAN_MOTION_DOT":-0.00030956,"MEAN_MOTION_DDOT":0},{"OBJECT_NAME":"KUIPER-00592","OBJECT_ID":"2026-118L","EPOCH":"2026-07-22T20:00:01.999872","CLASSIFICATION_TYPE":"U","MEAN_MOTION":15.02435959,"ECCENTRICITY":0.00015941,"INCLINATION":51.8874,"RA_OF_ASC_NODE":243.2197,"ARG_OF_PERICENTER":195.9592,"MEAN_ANOMALY":266.1226,"EPHEMERIS_TYPE":0,"NORAD_CAT_ID":69277,"ELEMENT_SET_NO":999,"REV_AT_EPOCH":566,"BSTAR":-0.14463626,"MEAN_MOTION_DOT":-0.01765484,"MEAN_MOTION_DDOT":0},{"OBJECT_NAME":"KUIPER-00593","OBJECT_ID":"2026-118M","EPOCH":"2026-07-22T09:28:35.022720","CLASSIFICATION_TYPE":"U","MEAN_MOTION":15.3885796,"ECCENTRICITY":0.00028552,"INCLINATION":51.8708,"RA_OF_ASC_NODE":242.6499,"ARG_OF_PERICENTER":313.1878,"MEAN_ANOMALY":46.887,"EPHEMERIS_TYPE":0,"NORAD_CAT_ID":69278,"ELEMENT_SET_NO":999,"REV_AT_EPOCH":946,"BSTAR":0.00070573823,"MEAN_MOTION_DOT":0.00027262,"MEAN_MOTION_DDOT":0},{"OBJECT_NAME":"KUIPER-00594","OBJECT_ID":"2026-118N","EPOCH":"2026-07-22T09:37:31.082016","CLASSIFICATION_TYPE":"U","MEAN_MOTION":15.37558886,"ECCENTRICITY":0.00020589,"INCLINATION":51.8692,"RA_OF_ASC_NODE":242.6889,"ARG_OF_PERICENTER":84.9787,"MEAN_ANOMALY":275.1435,"EPHEMERIS_TYPE":0,"NORAD_CAT_ID":69279,"ELEMENT_SET_NO":999,"REV_AT_EPOCH":940,"BSTAR":0.00064990874,"MEAN_MOTION_DOT":0.00024013,"MEAN_MOTION_DDOT":0},{"OBJECT_NAME":"KUIPER-00595","OBJECT_ID":"2026-118P","EPOCH":"2026-07-22T09:41:10.893120","CLASSIFICATION_TYPE":"U","MEAN_MOTION":15.37577104,"ECCENTRICITY":0.00015716,"INCLINATION":51.8696,"RA_OF_ASC_NODE":242.7049,"ARG_OF_PERICENTER":23.849,"MEAN_ANOMALY":336.2569,"EPHEMERIS_TYPE":0,"NORAD_CAT_ID":69280,"ELEMENT_SET_NO":999,"REV_AT_EPOCH":943,"BSTAR":0.00054297525,"MEAN_MOTION_DOT":0.00019998,"MEAN_MOTION_DDOT":0},{"OBJECT_NAME":"KUIPER-00596","OBJECT_ID":"2026-118Q","EPOCH":"2026-07-22T20:00:01.999872","CLASSIFICATION_TYPE":"U","MEAN_MOTION":14.80251291,"ECCENTRICITY":0.00004946,"INCLINATION":51.9005,"RA_OF_ASC_NODE":248.0378,"ARG_OF_PERICENTER":8.6593,"MEAN_ANOMALY":46.8858,"EPHEMERIS_TYPE":0,"NORAD_CAT_ID":69281,"ELEMENT_SET_NO":999,"REV_AT_EPOCH":570,"BSTAR":-0.0074549747,"MEAN_MOTION_DOT":-0.00057003,"MEAN_MOTION_DDOT":0},{"OBJECT_NAME":"KUIPER-00597","OBJECT_ID":"2026-118R","EPOCH":"2026-07-22T11:51:00.597024","CLASSIFICATION_TYPE":"U","MEAN_MOTION":15.37925521,"ECCENTRICITY":0.00069737,"INCLINATION":51.8643,"RA_OF_ASC_NODE":242.5309,"ARG_OF_PERICENTER":312.0394,"MEAN_ANOMALY":47.9999,"EPHEMERIS_TYPE":0,"NORAD_CAT_ID":69282,"ELEMENT_SET_NO":999,"REV_AT_EPOCH":941,"BSTAR":0.00082468828,"MEAN_MOTION_DOT":0.00030993,"MEAN_MOTION_DDOT":0},{"OBJECT_NAME":"KUIPER-00599","OBJECT_ID":"2026-118S","EPOCH":"2026-07-22T20:00:01.999872","CLASSIFICATION_TYPE":"U","MEAN_MOTION":15.22615575,"ECCENTRICITY":0.0005944,"INCLINATION":51.8782,"RA_OF_ASC_NODE":241.3584,"ARG_OF_PERICENTER":311.2345,"MEAN_ANOMALY":301.3734,"EPHEMERIS_TYPE":0,"NORAD_CAT_ID":69283,"ELEMENT_SET_NO":999,"REV_AT_EPOCH":460,"BSTAR":-0.05793953,"MEAN_MOTION_DOT":-0.0125196,"MEAN_MOTION_DDOT":0},{"OBJECT_NAME":"KUIPER-00600","OBJECT_ID":"2026-118T","EPOCH":"2026-07-22T09:00:57.329856","CLASSIFICATION_TYPE":"U","MEAN_MOTION":15.37588501,"ECCENTRICITY":0.00076735,"INCLINATION":51.8628,"RA_OF_ASC_NODE":243.2297,"ARG_OF_PERICENTER":318.3952,"MEAN_ANOMALY":41.645,"EPHEMERIS_TYPE":0,"NORAD_CAT_ID":69284,"ELEMENT_SET_NO":999,"REV_AT_EPOCH":939,"BSTAR":0.00070751747,"MEAN_MOTION_DOT":0.00026229,"MEAN_MOTION_DDOT":0},{"OBJECT_NAME":"KUIPER-00601","OBJECT_ID":"2026-118U","EPOCH":"2026-07-22T20:00:01.999872","CLASSIFICATION_TYPE":"U","MEAN_MOTION":14.9988231,"ECCENTRICITY":0.00035248,"INCLINATION":51.8929,"RA_OF_ASC_NODE":243.3864,"ARG_OF_PERICENTER":321.5299,"MEAN_ANOMALY":337.1261,"EPHEMERIS_TYPE":0,"NORAD_CAT_ID":69285,"ELEMENT_SET_NO":999,"REV_AT_EPOCH":521,"BSTAR":-0.0024710937,"MEAN_MOTION_DOT":-0.00031107,"MEAN_MOTION_DDOT":0},{"OBJECT_NAME":"KUIPER-00602","OBJECT_ID":"2026-118V","EPOCH":"2026-07-22T20:00:01.999872","CLASSIFICATION_TYPE":"U","MEAN_MOTION":15.33248418,"ECCENTRICITY":0.00030739,"INCLINATION":51.8708,"RA_OF_ASC_NODE":240.6491,"ARG_OF_PERICENTER":302.2427,"MEAN_ANOMALY":274.1174,"EPHEMERIS_TYPE":0,"NORAD_CAT_ID":69286,"ELEMENT_SET_NO":999,"REV_AT_EPOCH":584,"BSTAR":-0.011912099,"MEAN_MOTION_DOT":-0.00370363,"MEAN_MOTION_DDOT":0},{"OBJECT_NAME":"KUIPER-00603","OBJECT_ID":"2026-118W","EPOCH":"2026-07-22T20:00:01.999872","CLASSIFICATION_TYPE":"U","MEAN_MOTION":15.23878169,"ECCENTRICITY":0.00024834,"INCLINATION":51.8764,"RA_OF_ASC_NODE":241.1846,"ARG_OF_PERICENTER":308.8081,"MEAN_ANOMALY":327.1897,"EPHEMERIS_TYPE":0,"NORAD_CAT_ID":69287,"ELEMENT_SET_NO":999,"REV_AT_EPOCH":539,"BSTAR":-0.085874974,"MEAN_MOTION_DOT":-0.0190768,"MEAN_MOTION_DDOT":0}]}
